{
    "links": {
        "self": "http://www.neowsapp.com/rest/v1/neo/3780738?api_key=iIulBulltgU6a56xZRHN4H3l9WmuAYTsLGpBGhQ2"
    },
    "id": "3780738",
    "neo_reference_id": "3780738",
    "name": "(2017 QV1)",
    "designation": "2017 QV1",
    "nasa_jpl_url": "http://ssd.jpl.nasa.gov/sbdb.cgi?sstr=3780738",
    "absolute_magnitude_h": 26.9,
    "estimated_diameter": {
        "kilometers": {
            "estimated_diameter_min": 0.0110803882,
            "estimated_diameter_max": 0.0247765013
        },
        "meters": {
            "estimated_diameter_min": 11.0803882126,
            "estimated_diameter_max": 24.7765012606
        },
        "miles": {
            "estimated_diameter_min": 0.0068850319,
            "estimated_diameter_max": 0.0153953994
        },
        "feet": {
            "estimated_diameter_min": 36.3529808636,
            "estimated_diameter_max": 81.2877363957
        }
    },
    "is_potentially_hazardous_asteroid": false,
    "close_approach_data": [
        {
            "close_approach_date": "2017-08-12",
            "close_approach_date_full": "2017-Aug-12 14:22",
            "epoch_date_close_approach": 1502547720000,
            "relative_velocity": {
                "kilometers_per_second": "10.3651156405",
                "kilometers_per_hour": "37314.4163057672",
                "miles_per_hour": "23185.7271762141"
            },
            "miss_distance": {
                "astronomical": "0.010182709",
                "lunar": "3.961073801",
                "kilometers": "1523311.57722983",
                "miles": "946541.922358454"
            },
            "orbiting_body": "Earth"
        }
    ],
    "orbital_data": {
        "orbit_id": "2",
        "orbit_determination_date": "2017-08-29 06:20:02",
        "first_observation_date": "2017-08-17",
        "last_observation_date": "2017-08-26",
        "data_arc_in_days": 9,
        "observations_used": 19,
        "orbit_uncertainty": "8",
        "minimum_orbit_intersection": ".00632916",
        "jupiter_tisserand_invariant": "3.736",
        "epoch_osculation": "2457984.5",
        "eccentricity": ".5139015552815079",
        "semi_major_axis": "1.933444791262438",
        "inclination": "2.690240823476592",
        "ascending_node_longitude": "146.0328617303635",
        "orbital_period": "981.9651842976328",
        "perihelion_distance": ".9398445059817407",
        "perihelion_argument": "133.97315361",
        "aphelion_distance": "2.927045076543136",
        "perihelion_time": "2457946.809974312016",
        "mean_anomaly": "13.81760724783667",
        "mean_motion": ".3666117758110702",
        "equinox": "J2000",
        "orbit_class": {
            "orbit_class_type": "APO",
            "orbit_class_description": "Near-Earth asteroid orbits which cross the Earth’s orbit similar to that of 1862 Apollo",
            "orbit_class_range": "a (semi-major axis) > 1.0 AU; q (perihelion) < 1.017 AU"
        }
    },
    "is_sentry_object": false
}